[{"OBJECT_NAME":"FLOCK 4G-22","OBJECT_ID":"2025-009AN","EPOCH":"2026-03-09T22:51:40.689792","MEAN_MOTION":15.2720903,"ECCENTRICITY":8.959e-5,"INCLINATION":97.4046,"RA_OF_ASC_NODE":151.5884,"ARG_OF_PERICENTER":284.1963,"MEAN_ANOMALY":75.9176,"EPHEMERIS_TYPE":0,"CLASSIFICATION_TYPE":"U","NORAD_CAT_ID":62645,"ELEMENT_SET_NO":999,"REV_AT_EPOCH":6376,"BSTAR":0.00049035383,"MEAN_MOTION_DOT":0.00013013,"MEAN_MOTION_DDOT":0},{"OBJECT_NAME":"STARLINK-36042","OBJECT_ID":"2025-278Y","EPOCH":"2026-03-09T10:24:35.434944","MEAN_MOTION":15.27573102,"ECCENTRICITY":0.00022512,"INCLINATION":43.0002,"RA_OF_ASC_NODE":115.4822,"ARG_OF_PERICENTER":273.0427,"MEAN_ANOMALY":87.0167,"EPHEMERIS_TYPE":0,"CLASSIFICATION_TYPE":"U","NORAD_CAT_ID":66813,"ELEMENT_SET_NO":999,"REV_AT_EPOCH":1517,"BSTAR":0.0006700339,"MEAN_MOTION_DOT":0.00018218,"MEAN_MOTION_DDOT":0}]
